[{"OBJECT_NAME":"AL-FARABI 2","OBJECT_ID":"2018-099AZ","EPOCH":"2026-03-09T22:26:01.961088","MEAN_MOTION":15.6820138,"ECCENTRICITY":0.00045442,"INCLINATION":97.4095,"RA_OF_ASC_NODE":144.7856,"ARG_OF_PERICENTER":216.2732,"MEAN_ANOMALY":143.8222,"EPHEMERIS_TYPE":0,"CLASSIFICATION_TYPE":"U","NORAD_CAT_ID":43805,"ELEMENT_SET_NO":999,"REV_AT_EPOCH":39939,"BSTAR":0.0015578554,"MEAN_MOTION_DOT":0.00177018,"MEAN_MOTION_DDOT":0},{"OBJECT_NAME":"STARLINK-11287 [DTC]","OBJECT_ID":"2024-158J","EPOCH":"2026-03-09T19:43:31.475712","MEAN_MOTION":15.69705376,"ECCENTRICITY":8.411e-5,"INCLINATION":53.1597,"RA_OF_ASC_NODE":280.7399,"ARG_OF_PERICENTER":60.1114,"MEAN_ANOMALY":299.9987,"EPHEMERIS_TYPE":0,"CLASSIFICATION_TYPE":"U","NORAD_CAT_ID":60998,"ELEMENT_SET_NO":999,"REV_AT_EPOCH":8760,"BSTAR":-1.3450658e-5,"MEAN_MOTION_DOT":-2.217e-5,"MEAN_MOTION_DDOT":0}]
